start=new Date('2022-04-18T00:00:00.000Z').valueOf();
sats=[{"PERIAPSIS":"546.269","MEAN_ANOMALY":"303.1403","ECCENTRICITY":"0.00014210","MEAN_MOTION_DDOT":"0.0000000000000","OBJECT_ID":"2020-062P","ELEMENT_SET_NO":"999","INCLINATION":"53.0548","MEAN_ELEMENT_THEORY":"SGP4","FILE":"3405839","DECAY_DATE":null,"GP_ID":"201493498","CLASSIFICATION_TYPE":"U","SITE":"AFETR","RCS_SIZE":"LARGE","OBJECT_NAME":"STARLINK-1752","RA_OF_ASC_NODE":"279.3988","ARG_OF_PERICENTER":"56.9723","OBJECT_TYPE":"PAYLOAD","EPHEMERIS_TYPE":"0","TLE_LINE1":"1 46338U 20062P   22107.87323051 -.00000362  00000-0 -54248-5 0  9996","EPOCH":"2022-04-17T20:57:27.116064","TIME_SYSTEM":"UTC","LAUNCH_DATE":"2020-09-03","NORAD_CAT_ID":"46338","APOAPSIS":"548.237","REV_AT_EPOCH":"9000","SEMIMAJOR_AXIS":"6925.388","MEAN_MOTION":"15.06387012","BSTAR":"-0.00000542480000","TLE_LINE2":"2 46338  53.0548 279.3988 0001421  56.9723 303.1403 15.06387012 90003","CENTER_NAME":"EARTH","PERIOD":"95.593","COUNTRY_CODE":"US","MEAN_MOTION_DOT":"-0.00000362","REF_FRAME":"TEME"},{"TLE_LINE2":"2 46340  53.0561 279.5170 0001556  62.4036 297.7110 15.06381295 90004","CENTER_NAME":"EARTH","PERIOD":"95.593","COUNTRY_CODE":"US","MEAN_MOTION_DOT":"-0.00000724","REF_FRAME":"TEME","LAUNCH_DATE":"2020-09-03","TIME_SYSTEM":"UTC","NORAD_CAT_ID":"46340","APOAPSIS":"548.348","REV_AT_EPOCH":"9000","SEMIMAJOR_AXIS":"6925.406","MEAN_MOTION":"15.06381295","BSTAR":"-0.00002975800000","CLASSIFICATION_TYPE":"U","SITE":"AFETR","RCS_SIZE":"LARGE","OBJECT_NAME":"STARLINK-1759","ARG_OF_PERICENTER":"62.4036","RA_OF_ASC_NODE":"279.5170","OBJECT_TYPE":"PAYLOAD","EPHEMERIS_TYPE":"0","EPOCH":"2022-04-17T20:18:57.074688","TLE_LINE1":"1 46340U 20062R   22107.84649392 -.00000724  00000-0 -29758-4 0  9994","PERIAPSIS":"546.193","MEAN_ANOMALY":"297.7110","ECCENTRICITY":"0.00015560","MEAN_MOTION_DDOT":"0.0000000000000","OBJECT_ID":"2020-062R","ELEMENT_SET_NO":"999","INCLINATION":"53.0561","MEAN_ELEMENT_THEORY":"SGP4","DECAY_DATE":null,"FILE":"3405839","GP_ID":"201494238"},{"CENTER_NAME":"EARTH","TLE_LINE2":"2 46341  53.0548 259.4891 0001624  56.3618 303.7526 15.06392855 90295","MEAN_MOTION_DOT":"-0.00001078","REF_FRAME":"TEME","PERIOD":"95.593","COUNTRY_CODE":"US","SEMIMAJOR_AXIS":"6925.370","REV_AT_EPOCH":"9029","LAUNCH_DATE":"2020-09-03","TIME_SYSTEM":"UTC","NORAD_CAT_ID":"46341","APOAPSIS":"548.360","BSTAR":"-0.00005350500000","MEAN_MOTION":"15.06392855","RCS_SIZE":"LARGE","OBJECT_NAME":"STARLINK-1760","CLASSIFICATION_TYPE":"U","SITE":"AFETR","TLE_LINE1":"1 46341U 20062S   22107.85294642 -.00001078  00000-0 -53505-4 0  9990","EPOCH":"2022-04-17T20:28:14.570688","ARG_OF_PERICENTER":"56.3618","RA_OF_ASC_NODE":"259.4891","OBJECT_TYPE":"PAYLOAD","EPHEMERIS_TYPE":"0","ECCENTRICITY":"0.00016240","MEAN_MOTION_DDOT":"0.0000000000000","OBJECT_ID":"2020-062S","PERIAPSIS":"546.111","MEAN_ANOMALY":"303.7526","INCLINATION":"53.0548","MEAN_ELEMENT_THEORY":"SGP4","DECAY_DATE":null,"FILE":"3405839","GP_ID":"201492497","ELEMENT_SET_NO":"999"},{"TIME_SYSTEM":"UTC","LAUNCH_DATE":"2020-09-03","NORAD_CAT_ID":"46342","APOAPSIS":"548.327","REV_AT_EPOCH":"8999","SEMIMAJOR_AXIS":"6925.384","MEAN_MOTION":"15.06388421","BSTAR":"0.00003107500000","TLE_LINE2":"2 46342  53.0531 279.8662 0001557  59.5404 300.5738 15.06388421 89992","CENTER_NAME":"EARTH","PERIOD":"95.593","COUNTRY_CODE":"US","MEAN_MOTION_DOT":"0.00000181","REF_FRAME":"TEME","PERIAPSIS":"546.171","MEAN_ANOMALY":"300.5738","MEAN_MOTION_DDOT":"0.0000000000000","ECCENTRICITY":"0.00015570","OBJECT_ID":"2020-062T","ELEMENT_SET_NO":"999","MEAN_ELEMENT_THEORY":"SGP4","INCLINATION":"53.0531","GP_ID":"201492747","FILE":"3405839","DECAY_DATE":null,"CLASSIFICATION_TYPE":"U","SITE":"AFETR","RCS_SIZE":"LARGE","OBJECT_NAME":"STARLINK-1762","OBJECT_TYPE":"PAYLOAD","ARG_OF_PERICENTER":"59.5404","RA_OF_ASC_NODE":"279.8662","EPHEMERIS_TYPE":"0","EPOCH":"2022-04-17T18:23:31.477920","TLE_LINE1":"1 46342U 20062T   22107.76633655  .00000181  00000-0  31075-4 0  9992"},{"MEAN_MOTION_DDOT":"0.0000000000000","ECCENTRICITY":"0.00015890","OBJECT_ID":"2020-062U","PERIAPSIS":"546.121","MEAN_ANOMALY":"298.4527","MEAN_ELEMENT_THEORY":"SGP4","INCLINATION":"53.0555","GP_ID":"201493990","DECAY_DATE":null,"FILE":"3405839","ELEMENT_SET_NO":"999","RCS_SIZE":"LARGE","OBJECT_NAME":"STARLINK-1764","CLASSIFICATION_TYPE":"U","SITE":"AFETR","TLE_LINE1":"1 46343U 20062U   22107.76080587  .00000486  00000-0  51554-4 0  9995","EPOCH":"2022-04-17T18:15:33.627168","OBJECT_TYPE":"PAYLOAD","ARG_OF_PERICENTER":"61.6622","RA_OF_ASC_NODE":"259.9157","EPHEMERIS_TYPE":"0","REV_AT_EPOCH":"9027","SEMIMAJOR_AXIS":"6925.357","LAUNCH_DATE":"2020-09-03","TIME_SYSTEM":"UTC","NORAD_CAT_ID":"46343","APOAPSIS":"548.322","BSTAR":"0.00005155400000","MEAN_MOTION":"15.06397362","CENTER_NAME":"EARTH","TLE_LINE2":"2 46343  53.0555 259.9157 0001589  61.6622 298.4527 15.06397362 90276","MEAN_MOTION_DOT":"0.00000486","REF_FRAME":"TEME","PERIOD":"95.592","COUNTRY_CODE":"US"},{"ELEMENT_SET_NO":"999","DECAY_DATE":null,"FILE":"3405717","GP_ID":"201471704","INCLINATION":"53.0556","MEAN_ELEMENT_THEORY":"SGP4","MEAN_ANOMALY":"307.5899","PERIAPSIS":"546.008","OBJECT_ID":"2020-062V","ECCENTRICITY":"0.00017920","MEAN_MOTION_DDOT":"0.0000000000000","EPHEMERIS_TYPE":"0","ARG_OF_PERICENTER":"52.5253","RA_OF_ASC_NODE":"259.8226","OBJECT_TYPE":"PAYLOAD","EPOCH":"2022-04-17T18:42:05.949792","TLE_LINE1":"1 46344U 20062V   22107.77923553  .00000547  00000-0  55641-4 0  9995","SITE":"AFETR","CLASSIFICATION_TYPE":"U","OBJECT_NAME":"STARLINK-1765","RCS_SIZE":"LARGE","MEAN_MOTION":"15.06388485","BSTAR":"0.00005564100000","APOAPSIS":"548.490","NORAD_CAT_ID":"46344","TIME_SYSTEM":"UTC","LAUNCH_DATE":"2020-09-03","SEMIMAJOR_AXIS":"6925.384","REV_AT_EPOCH":"9043","COUNTRY_CODE":"US","PERIOD":"95.593","REF_FRAME":"TEME","MEAN_MOTION_DOT":"0.00000547","TLE_LINE2":"2 46344  53.0556 259.8226 0001792  52.5253 307.5899 15.06388485 90437","CENTER_NAME":"EARTH"},{"CENTER_NAME":"EARTH","TLE_LINE2":"2 46345  53.0539 279.5045 0001452  57.6103 302.5027 15.06383396 90007","MEAN_MOTION_DOT":"0.00002178","REF_FRAME":"TEME","PERIOD":"95.593","COUNTRY_CODE":"US","REV_AT_EPOCH":"9000","SEMIMAJOR_AXIS":"6925.399","TIME_SYSTEM":"UTC","LAUNCH_DATE":"2020-09-03","APOAPSIS":"548.270","NORAD_CAT_ID":"46345","BSTAR":"0.00016515000000","MEAN_MOTION":"15.06383396","RCS_SIZE":"LARGE","OBJECT_NAME":"STARLINK-1767","CLASSIFICATION_TYPE":"U","SITE":"AFETR","EPOCH":"2022-04-17T20:20:17.524320","TLE_LINE1":"1 46345U 20062W   22107.84742505  .00002178  00000-0  16515-3 0  9998","ARG_OF_PERICENTER":"57.6103","RA_OF_ASC_NODE":"279.5045","OBJECT_TYPE":"PAYLOAD","EPHEMERIS_TYPE":"0","ECCENTRICITY":"0.00014520","MEAN_MOTION_DDOT":"0.0000000000000","OBJECT_ID":"2020-062W","PERIAPSIS":"546.259","MEAN_ANOMALY":"302.5027","INCLINATION":"53.0539","MEAN_ELEMENT_THEORY":"SGP4","FILE":"3405839","DECAY_DATE":null,"GP_ID":"201492989","ELEMENT_SET_NO":"999"},{"REV_AT_EPOCH":"9199","SEMIMAJOR_AXIS":"6841.255","NORAD_CAT_ID":"46346","APOAPSIS":"465.749","TIME_SYSTEM":"UTC","LAUNCH_DATE":"2020-09-03","BSTAR":"0.00161550000000","MEAN_MOTION":"15.34260330","CENTER_NAME":"EARTH","TLE_LINE2":"2 46346  53.0522 136.5252 0003843  12.6660 347.4437 15.34260330 91992","REF_FRAME":"TEME","MEAN_MOTION_DOT":"0.00054372","COUNTRY_CODE":"US","PERIOD":"93.856","OBJECT_ID":"2020-062X","ECCENTRICITY":"0.00038430","MEAN_MOTION_DDOT":"0.0000000000000","MEAN_ANOMALY":"347.4437","PERIAPSIS":"460.491","DECAY_DATE":null,"FILE":"3405596","GP_ID":"201462527","INCLINATION":"53.0522","MEAN_ELEMENT_THEORY":"SGP4","ELEMENT_SET_NO":"999","OBJECT_NAME":"STARLINK-1546","RCS_SIZE":"LARGE","SITE":"AFETR","CLASSIFICATION_TYPE":"U","EPOCH":"2022-04-17T12:05:02.132160","TLE_LINE1":"1 46346U 20062X   22107.50349690  .00054372  00000-0  16155-2 0  9992","EPHEMERIS_TYPE":"0","ARG_OF_PERICENTER":"12.6660","RA_OF_ASC_NODE":"136.5252","OBJECT_TYPE":"PAYLOAD"},{"BSTAR":"0.00011741000000","MEAN_MOTION":"15.06394709","REV_AT_EPOCH":"9061","SEMIMAJOR_AXIS":"6925.365","TIME_SYSTEM":"UTC","LAUNCH_DATE":"2020-09-03","NORAD_CAT_ID":"46347","APOAPSIS":"548.499","MEAN_MOTION_DOT":"0.00001467","REF_FRAME":"TEME","PERIOD":"95.592","COUNTRY_CODE":"US","CENTER_NAME":"EARTH","TLE_LINE2":"2 46347  53.0549 234.6937 0001833  49.3224 310.7924 15.06394709 90611","INCLINATION":"53.0549","MEAN_ELEMENT_THEORY":"SGP4","DECAY_DATE":null,"FILE":"3405839","GP_ID":"201493499","ELEMENT_SET_NO":"999","ECCENTRICITY":"0.00018330","MEAN_MOTION_DDOT":"0.0000000000000","OBJECT_ID":"2020-062Y","PERIAPSIS":"545.960","MEAN_ANOMALY":"310.7924","TLE_LINE1":"1 46347U 20062Y   22107.80550360  .00001467  00000-0  11741-3 0  9998","EPOCH":"2022-04-17T19:19:55.511040","ARG_OF_PERICENTER":"49.3224","RA_OF_ASC_NODE":"234.6937","OBJECT_TYPE":"PAYLOAD","EPHEMERIS_TYPE":"0","RCS_SIZE":"LARGE","OBJECT_NAME":"STARLINK-1547","CLASSIFICATION_TYPE":"U","SITE":"AFETR"},{"REF_FRAME":"TEME","MEAN_MOTION_DOT":"-0.00000295","COUNTRY_CODE":"US","PERIOD":"95.593","CENTER_NAME":"EARTH","TLE_LINE2":"2 46348  53.0548 259.4953 0001357  69.4667 290.6468 15.06391679 90284","BSTAR":"-0.00000091452000","MEAN_MOTION":"15.06391679","REV_AT_EPOCH":"9028","SEMIMAJOR_AXIS":"6925.374","NORAD_CAT_ID":"46348","APOAPSIS":"548.179","TIME_SYSTEM":"UTC","LAUNCH_DATE":"2020-09-03","TLE_LINE1":"1 46348U 20062Z   22107.84926570 -.00000295  00000-0 -91452-6 0  9993","EPOCH":"2022-04-17T20:22:56.556480","EPHEMERIS_TYPE":"0","OBJECT_TYPE":"PAYLOAD","RA_OF_ASC_NODE":"259.4953","ARG_OF_PERICENTER":"69.4667","OBJECT_NAME":"STARLINK-1553","RCS_SIZE":"LARGE","SITE":"AFETR","CLASSIFICATION_TYPE":"U","GP_ID":"201494239","FILE":"3405839","DECAY_DATE":null,"MEAN_ELEMENT_THEORY":"SGP4","INCLINATION":"53.0548","ELEMENT_SET_NO":"999","OBJECT_ID":"2020-062Z","MEAN_MOTION_DDOT":"0.0000000000000","ECCENTRICITY":"0.00013570","MEAN_ANOMALY":"290.6468","PERIAPSIS":"546.299"}];
